[
    {
        "Altitude(m)": 604983.0530584145,
        "Argument of Periapsis(deg)": 0.0,
        "Eccentricity": 0.0,
        "Inclination(deg)": 60.0,
        "Latitude(deg)": -0.09272238773112162,
        "Longitude(deg)": -44.91608351258197,
        "Mean Anomaly(deg)": -180.0,
        "RAAN(deg)": 235.0,
        "Satellite Name": "Test1 1045",
        "Satellite Number": 1045,
        "Semi-Major Axis(m)": 6980739.136638005,
        "Time(s)": 0
    },
    {
        "Altitude(m)": 605055.3330366391,
        "Argument of Periapsis(deg)": 0.00010418945913296404,
        "Eccentricity": 0.0,
        "Inclination(deg)": 60.0,
        "Latitude(deg)": -0.633132007767815,
        "Longitude(deg)": -44.647958093331766,
        "Mean Anomaly(deg)": -179.37989385453818,
        "RAAN(deg)": 234.99957995086027,
        "Satellite Name": "Test1 1045",
        "Satellite Number": 1045,
        "Semi-Major Axis(m)": 6980739.136638005,
        "Time(s)": 10
    }
]